[{"OBJECT_NAME":"TIANMU-1 10","OBJECT_ID":"2023-101D","EPOCH":"2026-03-15T06:18:54.475200","MEAN_MOTION":15.29311681,"ECCENTRICITY":0.00071776,"INCLINATION":97.2746,"RA_OF_ASC_NODE":127.2874,"ARG_OF_PERICENTER":118.9079,"MEAN_ANOMALY":241.2882,"EPHEMERIS_TYPE":0,"CLASSIFICATION_TYPE":"U","NORAD_CAT_ID":57402,"ELEMENT_SET_NO":999,"REV_AT_EPOCH":14728,"BSTAR":0.00030116622,"MEAN_MOTION_DOT":8.497e-5,"MEAN_MOTION_DDOT":0},{"OBJECT_NAME":"FENGYUN 3F","OBJECT_ID":"2023-111A","EPOCH":"2026-03-15T07:48:24.272352","MEAN_MOTION":14.19920873,"ECCENTRICITY":0.00011479,"INCLINATION":98.6913,"RA_OF_ASC_NODE":146.0553,"ARG_OF_PERICENTER":77.449,"MEAN_ANOMALY":282.6814,"EPHEMERIS_TYPE":0,"CLASSIFICATION_TYPE":"U","NORAD_CAT_ID":57490,"ELEMENT_SET_NO":999,"REV_AT_EPOCH":13554,"BSTAR":5.1486517e-5,"MEAN_MOTION_DOT":6.6e-7,"MEAN_MOTION_DDOT":0},{"OBJECT_NAME":"ARKTIKA-M 2","OBJECT_ID":"2023-198A","EPOCH":"2026-03-05T01:50:11.956992","MEAN_MOTION":2.00612038,"ECCENTRICITY":0.68777232,"INCLINATION":63.2186,"RA_OF_ASC_NODE":165.9003,"ARG_OF_PERICENTER":267.7621,"MEAN_ANOMALY":18.8474,"EPHEMERIS_TYPE":0,"CLASSIFICATION_TYPE":"U","NORAD_CAT_ID":58584,"ELEMENT_SET_NO":999,"REV_AT_EPOCH":1623,"BSTAR":0,"MEAN_MOTION_DOT":1.5e-6,"MEAN_MOTION_DDOT":0},{"OBJECT_NAME":"TIANMU-1 11","OBJECT_ID":"2023-205A","EPOCH":"2026-03-15T07:32:52.285056","MEAN_MOTION":15.2596529,"ECCENTRICITY":0.00083208,"INCLINATION":97.3542,"RA_OF_ASC_NODE":97.374,"ARG_OF_PERICENTER":348.208,"MEAN_ANOMALY":11.8963,"EPHEMERIS_TYPE":0,"CLASSIFICATION_TYPE":"U","NORAD_CAT_ID":58645,"ELEMENT_SET_NO":999,"REV_AT_EPOCH":12320,"BSTAR":0.00026716603,"MEAN_MOTION_DOT":6.797e-5,"MEAN_MOTION_DDOT":0},{"OBJECT_NAME":"TIANMU-1 12","OBJECT_ID":"2023-205B","EPOCH":"2026-03-15T06:45:30.912192","MEAN_MOTION":15.25892824,"ECCENTRICITY":0.00061005,"INCLINATION":97.3531,"RA_OF_ASC_NODE":97.119,"ARG_OF_PERICENTER":332.5787,"MEAN_ANOMALY":27.5128,"EPHEMERIS_TYPE":0,"CLASSIFICATION_TYPE":"U","NORAD_CAT_ID":58646,"ELEMENT_SET_NO":999,"REV_AT_EPOCH":12318,"BSTAR":0.00029427342,"MEAN_MOTION_DOT":7.475e-5,"MEAN_MOTION_DDOT":0},{"OBJECT_NAME":"TIANMU-1 13","OBJECT_ID":"2023-205C","EPOCH":"2026-03-15T07:29:44.359872","MEAN_MOTION":15.25944865,"ECCENTRICITY":0.00059262,"INCLINATION":97.3558,"RA_OF_ASC_NODE":97.3907,"ARG_OF_PERICENTER":309.205,"MEAN_ANOMALY":50.8662,"EPHEMERIS_TYPE":0,"CLASSIFICATION_TYPE":"U","NORAD_CAT_ID":58647,"ELEMENT_SET_NO":999,"REV_AT_EPOCH":12318,"BSTAR":0.00027862106,"MEAN_MOTION_DOT":7.084e-5,"MEAN_MOTION_DDOT":0},{"OBJECT_NAME":"TIANMU-1 14","OBJECT_ID":"2023-205D","EPOCH":"2026-03-15T07:07:38.835264","MEAN_MOTION":15.25919513,"ECCENTRICITY":0.00067759,"INCLINATION":97.3493,"RA_OF_ASC_NODE":96.6394,"ARG_OF_PERICENTER":313.796,"MEAN_ANOMALY":46.2717,"EPHEMERIS_TYPE":0,"CLASSIFICATION_TYPE":"U","NORAD_CAT_ID":58648,"ELEMENT_SET_NO":999,"REV_AT_EPOCH":12318,"BSTAR":0.00027957301,"MEAN_MOTION_DOT":7.104e-5,"MEAN_MOTION_DDOT":0},{"OBJECT_NAME":"TIANMU-1 19","OBJECT_ID":"2023-208A","EPOCH":"2026-03-15T06:56:42.960768","MEAN_MOTION":15.29965622,"ECCENTRICITY":0.00037501,"INCLINATION":97.4386,"RA_OF_ASC_NODE":190.2828,"ARG_OF_PERICENTER":291.1283,"MEAN_ANOMALY":68.9557,"EPHEMERIS_TYPE":0,"CLASSIFICATION_TYPE":"U","NORAD_CAT_ID":58660,"ELEMENT_SET_NO":999,"REV_AT_EPOCH":12296,"BSTAR":0.00037828366,"MEAN_MOTION_DOT":0.00010903,"MEAN_MOTION_DDOT":0},{"OBJECT_NAME":"TIANMU-1 20","OBJECT_ID":"2023-208B","EPOCH":"2026-03-15T06:27:52.862976","MEAN_MOTION":15.31153051,"ECCENTRICITY":0.00059808,"INCLINATION":97.4326,"RA_OF_ASC_NODE":190.8021,"ARG_OF_PERICENTER":301.5987,"MEAN_ANOMALY":58.467,"EPHEMERIS_TYPE":0,"CLASSIFICATION_TYPE":"U","NORAD_CAT_ID":58661,"ELEMENT_SET_NO":999,"REV_AT_EPOCH":12304,"BSTAR":0.00039165485,"MEAN_MOTION_DOT":0.0001172,"MEAN_MOTION_DDOT":0},{"OBJECT_NAME":"TIANMU-1 21","OBJECT_ID":"2023-208C","EPOCH":"2026-03-15T06:15:09.857664","MEAN_MOTION":15.33185561,"ECCENTRICITY":0.00058013,"INCLINATION":97.438,"RA_OF_ASC_NODE":193.089,"ARG_OF_PERICENTER":294.7991,"MEAN_ANOMALY":65.2647,"EPHEMERIS_TYPE":0,"CLASSIFICATION_TYPE":"U","NORAD_CAT_ID":58662,"ELEMENT_SET_NO":999,"REV_AT_EPOCH":12316,"BSTAR":0.00041955077,"MEAN_MOTION_DOT":0.00013387,"MEAN_MOTION_DDOT":0},{"OBJECT_NAME":"TIANMU-1 22","OBJECT_ID":"2023-208D","EPOCH":"2026-03-15T05:49:56.929728","MEAN_MOTION":15.29572614,"ECCENTRICITY":0.0002697,"INCLINATION":97.4381,"RA_OF_ASC_NODE":190.2438,"ARG_OF_PERICENTER":329.4686,"MEAN_ANOMALY":30.6397,"EPHEMERIS_TYPE":0,"CLASSIFICATION_TYPE":"U","NORAD_CAT_ID":58663,"ELEMENT_SET_NO":999,"REV_AT_EPOCH":12296,"BSTAR":0.00036557752,"MEAN_MOTION_DOT":0.00010406,"MEAN_MOTION_DDOT":0},{"OBJECT_NAME":"TIANMU-1 15","OBJECT_ID":"2024-004A","EPOCH":"2026-03-15T07:04:22.590624","MEAN_MOTION":15.25925104,"ECCENTRICITY":0.00062107,"INCLINATION":97.4671,"RA_OF_ASC_NODE":260.5259,"ARG_OF_PERICENTER":328.8793,"MEAN_ANOMALY":31.2076,"EPHEMERIS_TYPE":0,"CLASSIFICATION_TYPE":"U","NORAD_CAT_ID":58700,"ELEMENT_SET_NO":999,"REV_AT_EPOCH":12145,"BSTAR":0.00029415503,"MEAN_MOTION_DOT":7.477e-5,"MEAN_MOTION_DDOT":0},{"OBJECT_NAME":"TIANMU-1 16","OBJECT_ID":"2024-004B","EPOCH":"2026-03-15T06:40:24.981024","MEAN_MOTION":15.25960002,"ECCENTRICITY":0.00047436,"INCLINATION":97.4614,"RA_OF_ASC_NODE":259.8284,"ARG_OF_PERICENTER":335.3619,"MEAN_ANOMALY":24.7392,"EPHEMERIS_TYPE":0,"CLASSIFICATION_TYPE":"U","NORAD_CAT_ID":58701,"ELEMENT_SET_NO":999,"REV_AT_EPOCH":12145,"BSTAR":0.00030225241,"MEAN_MOTION_DOT":7.692e-5,"MEAN_MOTION_DDOT":0},{"OBJECT_NAME":"TIANMU-1 17","OBJECT_ID":"2024-004C","EPOCH":"2026-03-15T07:49:12.817056","MEAN_MOTION":15.25996387,"ECCENTRICITY":0.00040017,"INCLINATION":97.4645,"RA_OF_ASC_NODE":260.3324,"ARG_OF_PERICENTER":339.0721,"MEAN_ANOMALY":21.0353,"EPHEMERIS_TYPE":0,"CLASSIFICATION_TYPE":"U","NORAD_CAT_ID":58702,"ELEMENT_SET_NO":999,"REV_AT_EPOCH":12145,"BSTAR":0.00031196399,"MEAN_MOTION_DOT":7.95e-5,"MEAN_MOTION_DDOT":0},{"OBJECT_NAME":"TIANMU-1 18","OBJECT_ID":"2024-004D","EPOCH":"2026-03-15T07:28:08.478336","MEAN_MOTION":15.25941406,"ECCENTRICITY":0.00033752,"INCLINATION":97.4663,"RA_OF_ASC_NODE":260.5301,"ARG_OF_PERICENTER":340.7709,"MEAN_ANOMALY":19.3401,"EPHEMERIS_TYPE":0,"CLASSIFICATION_TYPE":"U","NORAD_CAT_ID":58703,"ELEMENT_SET_NO":999,"REV_AT_EPOCH":12145,"BSTAR":0.00028858909,"MEAN_MOTION_DOT":7.336e-5,"MEAN_MOTION_DDOT":0},{"OBJECT_NAME":"INSAT-3DS","OBJECT_ID":"2024-033A","EPOCH":"2026-03-15T03:43:32.526048","MEAN_MOTION":1.00271729,"ECCENTRICITY":0.00021379,"INCLINATION":0.0274,"RA_OF_ASC_NODE":240.0157,"ARG_OF_PERICENTER":128.4744,"MEAN_ANOMALY":302.2185,"EPHEMERIS_TYPE":0,"CLASSIFICATION_TYPE":"U","NORAD_CAT_ID":58990,"ELEMENT_SET_NO":999,"REV_AT_EPOCH":4612,"BSTAR":0,"MEAN_MOTION_DOT":-1.57e-6,"MEAN_MOTION_DDOT":0},{"OBJECT_NAME":"METEOR-M2 4","OBJECT_ID":"2024-039A","EPOCH":"2026-03-15T06:38:13.165728","MEAN_MOTION":14.22418208,"ECCENTRICITY":0.00082007,"INCLINATION":98.6912,"RA_OF_ASC_NODE":34.8059,"ARG_OF_PERICENTER":82.4837,"MEAN_ANOMALY":277.7272,"EPHEMERIS_TYPE":0,"CLASSIFICATION_TYPE":"U","NORAD_CAT_ID":59051,"ELEMENT_SET_NO":999,"REV_AT_EPOCH":10591,"BSTAR":3.0410014e-5,"MEAN_MOTION_DOT":2.4e-7,"MEAN_MOTION_DDOT":0}]
