TIANMU-1 10             
1 57402U 23101D   26074.26313050  .00008497  00000+0  30117-3 0  9996
2 57402  97.2746 127.2874 0007177 118.9079 241.2882 15.29311681147289
FENGYUN 3F              
1 57490U 23111A   26074.32528093  .00000066  00000+0  51487-4 0  9994
2 57490  98.6913 146.0553 0001147  77.4490 282.6814 14.19920873135544
ARKTIKA-M 2             
1 58584U 23198A   26064.07652728  .00000150  00000+0  00000+0 0  9992
2 58584  63.2186 165.9003 6877723 267.7621  18.8474  2.00612038 16239
TIANMU-1 11             
1 58645U 23205A   26074.31449404  .00006797  00000+0  26717-3 0  9992
2 58645  97.3542  97.3740 0008320 348.2080  11.8963 15.25965290123208
TIANMU-1 12             
1 58646U 23205B   26074.28160778  .00007475  00000+0  29427-3 0  9998
2 58646  97.3531  97.1190 0006100 332.5787  27.5128 15.25892824123184
TIANMU-1 13             
1 58647U 23205C   26074.31231898  .00007084  00000+0  27862-3 0  9992
2 58647  97.3558  97.3907 0005926 309.2050  50.8662 15.25944865123186
TIANMU-1 14             
1 58648U 23205D   26074.29697726  .00007104  00000+0  27957-3 0  9994
2 58648  97.3493  96.6394 0006775 313.7960  46.2717 15.25919513123182
TIANMU-1 19             
1 58660U 23208A   26074.28938612  .00010903  00000+0  37828-3 0  9991
2 58660  97.4386 190.2828 0003750 291.1283  68.9557 15.29965622122962
TIANMU-1 20             
1 58661U 23208B   26074.26936184  .00011720  00000+0  39165-3 0  9996
2 58661  97.4326 190.8021 0005980 301.5987  58.4670 15.31153051123040
TIANMU-1 21             
1 58662U 23208C   26074.26053076  .00013387  00000+0  41955-3 0  9998
2 58662  97.4380 193.0890 0005801 294.7991  65.2647 15.33185561123166
TIANMU-1 22             
1 58663U 23208D   26074.24302002  .00010406  00000+0  36558-3 0  9995
2 58663  97.4381 190.2438 0002697 329.4686  30.6397 15.29572614122961
TIANMU-1 15             
1 58700U 24004A   26074.29470591  .00007477  00000+0  29416-3 0  9995
2 58700  97.4671 260.5259 0006210 328.8793  31.2076 15.25925104121450
TIANMU-1 16             
1 58701U 24004B   26074.27806691  .00007692  00000+0  30225-3 0  9997
2 58701  97.4614 259.8284 0004743 335.3619  24.7392 15.25960002121450
TIANMU-1 17             
1 58702U 24004C   26074.32584279  .00007950  00000+0  31196-3 0  9994
2 58702  97.4645 260.3324 0004001 339.0721  21.0353 15.25996387121451
TIANMU-1 18             
1 58703U 24004D   26074.31120924  .00007336  00000+0  28859-3 0  9997
2 58703  97.4663 260.5301 0003375 340.7709  19.3401 15.25941406121453
INSAT-3DS               
1 58990U 24033A   26074.15523757 -.00000157  00000+0  00000+0 0  9999
2 58990   0.0274 240.0157 0002137 128.4744 302.2185  1.00271729 46121
METEOR-M2 4             
1 59051U 24039A   26074.27654127  .00000024  00000+0  30410-4 0  9998
2 59051  98.6912  34.8059 0008200  82.4837 277.7272 14.22418208105910
